{
  "norad_id": 65500,
  "name": "STARLINK-35207",
  "history": [
    {
      "epoch": "2026-03-28T15:59:32.849952Z",
      "apogee_km": 476.05596307092856,
      "perigee_km": 474.24957295387685,
      "latitude_deg": -4.734918368762682e-05,
      "longitude_deg": 117.01126716218427,
      "height_km": 475.94050203937036,
      "semi_major_axis_km": 6853.289768012402,
      "eccentricity": 0.00013179,
      "inclination_deg": 53.1598,
      "raan_deg": 182.9817,
      "arg_perigee_deg": 82.9864,
      "mean_anomaly_deg": 277.1286,
      "mean_motion_rev_day": 15.30220866
    },
    {
      "epoch": "2026-03-28T23:49:49.005984Z",
      "apogee_km": 476.370770924862,
      "perigee_km": 474.02693006399386,
      "latitude_deg": 3.051861048684868e-05,
      "longitude_deg": -2.3964796255300445,
      "height_km": 476.1248686100037,
      "semi_major_axis_km": 6853.335850494428,
      "eccentricity": 0.000171,
      "inclination_deg": 53.1598,
      "raan_deg": 181.4631,
      "arg_perigee_deg": 91.3976,
      "mean_anomaly_deg": 268.7221,
      "mean_motion_rev_day": 15.30205432
    },
    {
      "epoch": "2026-03-29T23:20:36.871872Z",
      "apogee_km": 475.88461737184844,
      "perigee_km": 474.41390214050443,
      "latitude_deg": -8.224091328521393e-08,
      "longitude_deg": -0.6114998900368664,
      "height_km": 476.2500233149549,
      "semi_major_axis_km": 6853.286259756176,
      "eccentricity": 0.0001073,
      "inclination_deg": 53.1605,
      "raan_deg": 176.9132,
      "arg_perigee_deg": 105.9688,
      "mean_anomaly_deg": 254.1431,
      "mean_motion_rev_day": 15.30222041
    },
    {
      "epoch": "2026-03-30T05:36:49.922496Z",
      "apogee_km": 476.0166732242524,
      "perigee_km": 474.5016614674996,
      "latitude_deg": 3.314508983566546e-05,
      "longitude_deg": -96.13476418554693,
      "height_km": 476.3165325862389,
      "semi_major_axis_km": 6853.396167345876,
      "eccentricity": 0.00011053,
      "inclination_deg": 53.1599,
      "raan_deg": 175.7018,
      "arg_perigee_deg": 102.1209,
      "mean_anomaly_deg": 257.9916,
      "mean_motion_rev_day": 15.30185231
    },
    {
      "epoch": "2026-03-30T11:53:02.796000Z",
      "apogee_km": 476.2969328218842,
      "perigee_km": 474.1081132450163,
      "latitude_deg": 6.73658006880727e-05,
      "longitude_deg": 168.33861229806797,
      "height_km": 476.28367093590555,
      "semi_major_axis_km": 6853.33952303345,
      "eccentricity": 0.00015969,
      "inclination_deg": 53.1595,
      "raan_deg": 174.4863,
      "arg_perigee_deg": 99.6557,
      "mean_anomaly_deg": 260.4625,
      "mean_motion_rev_day": 15.30204202
    },
    {
      "epoch": "2026-03-30T16:35:12.349824Z",
      "apogee_km": 475.9052725769661,
      "perigee_km": 474.4684047009587,
      "latitude_deg": -5.69506174267442e-05,
      "longitude_deg": 96.69758117238989,
      "height_km": 476.05091360800594,
      "semi_major_axis_km": 6853.323838638962,
      "eccentricity": 0.00010483,
      "inclination_deg": 53.1602,
      "raan_deg": 173.5783,
      "arg_perigee_deg": 87.2606,
      "mean_anomaly_deg": 272.8514,
      "mean_motion_rev_day": 15.30209455
    },
    {
      "epoch": "2026-03-31T11:23:50.715456Z",
      "apogee_km": 475.71346051755154,
      "perigee_km": 474.77057263245024,
      "latitude_deg": 5.8114850100959054e-05,
      "longitude_deg": 170.12498488253846,
      "height_km": 476.0068552226398,
      "semi_major_axis_km": 6853.379016575001,
      "eccentricity": 6.879e-05,
      "inclination_deg": 53.1628,
      "raan_deg": 169.938,
      "arg_perigee_deg": 73.4439,
      "mean_anomaly_deg": 286.6638,
      "mean_motion_rev_day": 15.30190975
    },
    {
      "epoch": "2026-04-01T09:20:35.766240Z",
      "apogee_km": 476.03925603488733,
      "perigee_km": 474.37115254236323,
      "latitude_deg": 3.408237741150135e-05,
      "longitude_deg": -164.21342733031653,
      "height_km": 475.97827518997354,
      "semi_major_axis_km": 6853.342204288625,
      "eccentricity": 0.0001217,
      "inclination_deg": 53.1607,
      "raan_deg": 165.6886,
      "arg_perigee_deg": 81.3688,
      "mean_anomaly_deg": 278.7451,
      "mean_motion_rev_day": 15.30203304
    },
    {
      "epoch": "2026-04-02T13:33:32.800608Z",
      "apogee_km": 475.96673628881854,
      "perigee_km": 474.3943111161798,
      "latitude_deg": -6.0916975058157504e-05,
      "longitude_deg": 125.92987634616249,
      "height_km": 475.7463974338415,
      "semi_major_axis_km": 6853.317523702499,
      "eccentricity": 0.00011472,
      "inclination_deg": 53.159,
      "raan_deg": 160.2284,
      "arg_perigee_deg": 64.9873,
      "mean_anomaly_deg": 295.1246,
      "mean_motion_rev_day": 15.3021157
    },
    {
      "epoch": "2026-04-02T21:23:48.537600Z",
      "apogee_km": 476.09067039095316,
      "perigee_km": 474.1872415269445,
      "latitude_deg": -3.487899604163347e-05,
      "longitude_deg": 6.5248420802537535,
      "height_km": 475.9108662123543,
      "semi_major_axis_km": 6853.2759559589485,
      "eccentricity": 0.00013887,
      "inclination_deg": 53.1603,
      "raan_deg": 158.7108,
      "arg_perigee_deg": 82.388,
      "mean_anomaly_deg": 277.7278,
      "mean_motion_rev_day": 15.30225492
    },
    {
      "epoch": "2026-04-03T13:04:20.373600Z",
      "apogee_km": 475.90798188734243,
      "perigee_km": 474.649694739428,
      "latitude_deg": -2.4387587851024398e-05,
      "longitude_deg": 127.71732960952988,
      "height_km": 476.3407327134103,
      "semi_major_axis_km": 6853.4158383133845,
      "eccentricity": 9.18e-05,
      "inclination_deg": 53.1578,
      "raan_deg": 155.6797,
      "arg_perigee_deg": 105.0673,
      "mean_anomaly_deg": 255.0429,
      "mean_motion_rev_day": 15.30178643
    },
    {
      "epoch": "2026-04-04T20:25:25.425408Z",
      "apogee_km": 476.6112861273259,
      "perigee_km": 473.79867457858927,
      "latitude_deg": 4.862619153538069e-06,
      "longitude_deg": 10.089444979543718,
      "height_km": 475.98177513725966,
      "semi_major_axis_km": 6853.341980352958,
      "eccentricity": 0.0002052,
      "inclination_deg": 53.1573,
      "raan_deg": 149.6104,
      "arg_perigee_deg": 85.1095,
      "mean_anomaly_deg": 275.014,
      "mean_motion_rev_day": 15.30203379
    },
    {
      "epoch": "2026-04-05T10:31:54.568992Z",
      "apogee_km": 476.14592700981575,
      "perigee_km": 474.39035874841557,
      "latitude_deg": -1.78946235819439e-05,
      "longitude_deg": 155.1575966033042,
      "height_km": 476.11933572283925,
      "semi_major_axis_km": 6853.405142879115,
      "eccentricity": 0.00012808,
      "inclination_deg": 53.1569,
      "raan_deg": 146.8794,
      "arg_perigee_deg": 86.9612,
      "mean_anomaly_deg": 273.1535,
      "mean_motion_rev_day": 15.30182225
    },
    {
      "epoch": "2026-04-05T19:56:13.826112Z",
      "apogee_km": 476.0748052108629,
      "perigee_km": 474.3779124432176,
      "latitude_deg": -1.8683625484512777e-05,
      "longitude_deg": 11.870793347040962,
      "height_km": 476.0695834827838,
      "semi_major_axis_km": 6853.36335882704,
      "eccentricity": 0.0001238,
      "inclination_deg": 53.1567,
      "raan_deg": 145.0591,
      "arg_perigee_deg": 86.314,
      "mean_anomaly_deg": 273.8002,
      "mean_motion_rev_day": 15.30196219
    },
    {
      "epoch": "2026-04-06T03:46:29.701344Z",
      "apogee_km": 476.0885301441667,
      "perigee_km": 474.29035435224887,
      "latitude_deg": -1.5006475870987986e-06,
      "longitude_deg": -107.53372601511165,
      "height_km": 476.0844429766311,
      "semi_major_axis_km": 6853.326442248207,
      "eccentricity": 0.00013119,
      "inclination_deg": 53.1572,
      "raan_deg": 143.5426,
      "arg_perigee_deg": 89.8267,
      "mean_anomaly_deg": 270.2884,
      "mean_motion_rev_day": 15.30208583
    }
  ]
}